[{"OBJECT_NAME":"STARLINK-32423","OBJECT_ID":"2024-171U","EPOCH":"2026-03-09T22:04:56.732448","MEAN_MOTION":15.3019008,"ECCENTRICITY":8.572e-5,"INCLINATION":53.1603,"RA_OF_ASC_NODE":321.384,"ARG_OF_PERICENTER":86.136,"MEAN_ANOMALY":273.9739,"EPHEMERIS_TYPE":0,"CLASSIFICATION_TYPE":"U","NORAD_CAT_ID":61218,"ELEMENT_SET_NO":999,"REV_AT_EPOCH":8331,"BSTAR":4.2247705e-5,"MEAN_MOTION_DOT":8.92e-6,"MEAN_MOTION_DDOT":0},{"OBJECT_NAME":"TRANSPORTER-1 OBJECT L","OBJECT_ID":"2021-006L","EPOCH":"2026-03-09T22:38:42.795168","MEAN_MOTION":15.33192932,"ECCENTRICITY":0.00114726,"INCLINATION":97.2368,"RA_OF_ASC_NODE":117.6447,"ARG_OF_PERICENTER":180.5165,"MEAN_ANOMALY":179.6068,"EPHEMERIS_TYPE":0,"CLASSIFICATION_TYPE":"U","NORAD_CAT_ID":47423,"ELEMENT_SET_NO":999,"REV_AT_EPOCH":28445,"BSTAR":0.00025636794,"MEAN_MOTION_DOT":8.162e-5,"MEAN_MOTION_DDOT":0}]
